*******************************************************************************
 Revised: January 26, 2022             Saturn                               699
 
 PHYSICAL DATA:
  Mass x10^26 (kg)      = 5.6834          Density (g/cm^3)       =  0.687+-.001
  Equat. radius (1 bar) = 60268+-4 km     Polar radius (km)      = 54364+-10
  Vol. Mean Radius (km) = 58232+-6        Flattening             =  0.09796
  Geometric Albedo      = 0.47            Rocky core mass (Mc/M) =  0.1027
  Sid. rot. period (III)= 10h 39m 22.4s   Sid. rot. rate (rad/s) =  0.000163785 
  Mean solar day, hrs   =~10.656         
  GM (km^3/s^2)         = 37931206.234    GM 1-sigma (km^3/s^2)  = +- 98
  Equ. grav, ge (m/s^2) = 10.44           Pol. grav, gp (m/s^2)  = 12.14+-0.01
  Vis. magnitude V(1,0) = -8.88          
  Vis. mag. (opposition)= +0.67           Obliquity to orbit     = 26.73 deg
  Sidereal orbit period = 29.447498 yr    Sidereal orbit period  = 10755.698 d
  Mean daily motion     = 0.0334979 deg/d Mean orbit velocity    =  9.68 km/s
  Atmos. temp. (1 bar)  = 134+-4 K        Escape speed, km/s    =  35.5          
  Aroche(ice)/Rp        =  2.71           Hill's sphere rad. Rp  = 1100
                                 Perihelion  Aphelion    Mean
  Solar Constant (W/m^2)         16.8        13.6        15.1
  Maximum Planetary IR (W/m^2)    4.7         4.5         4.6
  Minimum Planetary IR (W/m^2)    4.7         4.5         4.6
*******************************************************************************


*******************************************************************************
Ephemeris / WWW_USER Fri Jan  3 20:01:30 2025 Pasadena, USA      / Horizons
*******************************************************************************
Target body name: Saturn (699)                    {source: sat441l}
Center body name: Solar System Barycenter (0)     {source: DE441}
Center-site name: BODY CENTER
*******************************************************************************
Start time      : A.D. 2010-Jan-01 00:00:00.0000 TDB
Stop  time      : A.D. 2030-Jan-01 00:00:00.0000 TDB
Step-size       : 1440 minutes
*******************************************************************************
Center geodetic : 0.0, 0.0, 0.0                   {E-lon(deg),Lat(deg),Alt(km)}
Center cylindric: 0.0, 0.0, 0.0                   {E-lon(deg),Dxy(km),Dz(km)}
Center radii    : (undefined)
Output units    : KM-S
Calendar mode   : Mixed Julian/Gregorian
Output type     : GEOMETRIC cartesian states
Output format   : 3 (position, velocity, LT, range, range-rate)
Reference frame : Ecliptic of J2000.0
*******************************************************************************
JDTDB
   X     Y     Z
   VX    VY    VZ
   LT    RG    RR
*******************************************************************************
$$SOE
2461775.500000000 = A.D. 2028-Jan-05 00:00:00.0000 TDB 
 X = 1.240793446460965E+09 Y = 6.258834344434364E+08 Z =-6.028804984007621E+07
 VX=-4.875642808127711E+00 VY= 8.603101118599403E+00 VZ= 4.511666178238816E-02
 LT= 4.639939031210033E+03 RG= 1.391018727136595E+09 RR=-4.801137117435874E-01
2461776.500000000 = A.D. 2028-Jan-06 00:00:00.0000 TDB 
 X = 1.240371987127572E+09 Y = 6.266266284147426E+08 Z =-6.028414384936774E+07
 VX=-4.880378655256110E+00 VY= 8.600492759439756E+00 VZ= 4.528632589953174E-02
 LT= 4.639800757356184E+03 RG= 1.390977273678072E+09 RR=-4.794594778844376E-01
2461777.500000000 = A.D. 2028-Jan-07 00:00:00.0000 TDB 
 X = 1.239950113901436E+09 Y = 6.273696044499565E+08 Z =-6.028022658715430E+07
 VX=-4.885233774982116E+00 VY= 8.598051418099745E+00 VZ= 4.538043993570229E-02
 LT= 4.639662669716242E+03 RG= 1.390935876045074E+09 RR=-4.788327148525993E-01
2461778.500000000 = A.D. 2028-Jan-08 00:00:00.0000 TDB 
 X = 1.239527814308608E+09 Y = 6.281123728452320E+08 Z =-6.027630226555640E+07
 VX=-4.890225608482885E+00 VY= 8.595666145826621E+00 VZ= 4.545876329560894E-02
 LT= 4.639524747436334E+03 RG= 1.390894527985768E+09 RR=-4.783011750277142E-01
2461779.500000000 = A.D. 2028-Jan-09 00:00:00.0000 TDB 
 X = 1.239105082011041E+09 Y = 6.288549394563328E+08 Z =-6.027237328444883E+07
 VX=-4.895276919367884E+00 VY= 8.593418475139291E+00 VZ= 4.547009369019017E-02
 LT= 4.639386981060748E+03 RG= 1.390853226665401E+09 RR=-4.777566974387016E-01
2461780.500000000 = A.D. 2028-Jan-10 00:00:00.0000 TDB 
 X = 1.238681899615183E+09 Y = 6.295973170051244E+08 Z =-6.026844475968289E+07
 VX=-4.900651734012150E+00 VY= 8.591218836771931E+00 VZ= 4.548659305449476E-02
 LT= 4.639249339118418E+03 RG= 1.390811962649186E+09 RR=-4.774776848762508E-01
2461781.500000000 = A.D. 2028-Jan-11 00:00:00.0000 TDB 
 X = 1.238258246873000E+09 Y = 6.303394999227098E+08 Z =-6.026451190577918E+07
 VX=-4.906159216634070E+00 VY= 8.588943725404238E+00 VZ= 4.555314992811255E-02
 LT= 4.639111752736505E+03 RG= 1.390770715289565E+09 RR=-4.773517653062417E-01
2461782.500000000 = A.D. 2028-Jan-12 00:00:00.0000 TDB 
 X = 1.237834109251911E+09 Y = 6.310814824227976E+08 Z =-6.026057048045713E+07
 VX=-4.911858379533232E+00 VY= 8.586544722490128E+00 VZ= 4.570204426712099E-02
 LT= 4.638974169796838E+03 RG= 1.390729468961903E+09 RR=-4.774548290816316E-01
2461783.500000000 = A.D. 2028-Jan-13 00:00:00.0000 TDB 
 X = 1.237409476757543E+09 Y = 6.318232497302507E+08 Z =-6.025661192424113E+07
 VX=-4.917600596247052E+00 VY= 8.583968503276743E+00 VZ= 4.594464373444662E-02
 LT= 4.638836537418262E+03 RG= 1.390688207812830E+09 RR=-4.776794469225332E-01
2461784.500000000 = A.D. 2028-Jan-14 00:00:00.0000 TDB 
 X = 1.236984348978093E+09 Y = 6.325647875595369E+08 Z =-6.025262897985956E+07
 VX=-4.923304109667865E+00 VY= 8.581240107794827E+00 VZ= 4.626106792871942E-02
 LT= 4.638698832014444E+03 RG= 1.390646924771339E+09 RR=-4.779409800265920E-01
2461785.500000000 = A.D. 2028-Jan-15 00:00:00.0000 TDB 
 X = 1.236558729927264E+09 Y = 6.333060876916754E+08 Z =-6.024861800151193E+07
 VX=-4.929022231427548E+00 VY= 8.578465067213136E+00 VZ= 4.659887136254026E-02
 LT= 4.638561052763001E+03 RG= 1.390605619590888E+09 RR=-4.782368404037644E-01
2461786.500000000 = A.D. 2028-Jan-16 00:00:00.0000 TDB 
 X = 1.236132614714727E+09 Y = 6.340471369456180E+08 Z =-6.024457190040594E+07
 VX=-4.934704190131521E+00 VY= 8.575411971364925E+00 VZ= 4.707685933917194E-02
 LT= 4.638423164322165E+03 RG= 1.390564281676280E+09 RR=-4.786326808659806E-01
2461787.500000000 = A.D. 2028-Jan-17 00:00:00.0000 TDB 
 X = 1.235706020175915E+09 Y = 6.347879174420544E+08 Z =-6.024048318452811E+07
 VX=-4.940146349314896E+00 VY= 8.572275649483778E+00 VZ= 4.757157765649778E-02
 LT= 4.638285188462948E+03 RG= 1.390522917554300E+09 RR=-4.788538926912850E-01
2461788.500000000 = A.D. 2028-Jan-18 00:00:00.0000 TDB 
 X = 1.235278963003782E+09 Y = 6.355284242602742E+08 Z =-6.023635110182157E+07
 VX=-4.945392864475365E+00 VY= 8.569079433407154E+00 VZ= 4.807710588493075E-02
 LT= 4.638147167073543E+03 RG= 1.390481539782714E+09 RR=-4.789291982511086E-01
2461789.500000000 = A.D. 2028-Jan-19 00:00:00.0000 TDB 
 X = 1.234851462945293E+09 Y = 6.362686565226858E+08 Z =-6.023217734686536E+07
 VX=-4.950417781710385E+00 VY= 8.565940972871317E+00 VZ= 4.852768456395262E-02
 LT= 4.638009157517989E+03 RG= 1.390440165558827E+09 RR=-4.787791879626364E-01
2461790.500000000 = A.D. 2028-Jan-20 00:00:00.0000 TDB 
 X = 1.234423535902420E+09 Y = 6.370086215461633E+08 Z =-6.022796742347187E+07
 VX=-4.955272676739970E+00 VY= 8.562912694520225E+00 VZ= 4.890348081693485E-02
 LT= 4.637871218768430E+03 RG= 1.390398812562043E+09 RR=-4.784248650567561E-01
2461791.500000000 = A.D. 2028-Jan-21 00:00:00.0000 TDB 
 X = 1.233995190874631E+09 Y = 6.377483325170007E+08 Z =-6.022372922289148E+07
 VX=-4.960116220110109E+00 VY= 8.560021415475498E+00 VZ= 4.920546563024031E-02
 LT= 4.637733398682795E+03 RG= 1.390357495139809E+09 RR=-4.779947004474462E-01
2461792.500000000 = A.D. 2028-Jan-22 00:00:00.0000 TDB 
 X = 1.233566433968796E+09 Y = 6.384877961211575E+08 Z =-6.021946678985927E+07
 VX=-4.964786761028225E+00 VY= 8.557246045637873E+00 VZ= 4.943065906219513E-02
 LT= 4.637595726108592E+03 RG= 1.390316221940390E+09 RR=-4.773545824537684E-01
2461793.500000000 = A.D. 2028-Jan-23 00:00:00.0000 TDB 
 X = 1.233137272442877E+09 Y = 6.392270340342422E+08 Z =-6.021519222309595E+07
 VX=-4.969547543173185E+00 VY= 8.554775454490427E+00 VZ= 4.950459027927190E-02
 LT= 4.637458257479082E+03 RG= 1.390275009882051E+09 RR=-4.766477752748650E-01
2461794.500000000 = A.D. 2028-Jan-24 00:00:00.0000 TDB 
 X = 1.232707690808228E+09 Y = 6.399660639354110E+08 Z =-6.021091325188810E+07
 VX=-4.974493772682025E+00 VY= 8.552419850934214E+00 VZ= 4.953596519874104E-02
 LT= 4.637320975314155E+03 RG= 1.390233853724388E+09 RR=-4.760500301929499E-01
2461795.500000000 = A.D. 2028-Jan-25 00:00:00.0000 TDB 
 X = 1.232277672739666E+09 Y = 6.407048944058900E+08 Z =-6.020663287559664E+07
 VX=-4.979661992488817E+00 VY= 8.550130112997019E+00 VZ= 4.955411991284064E-02
 LT= 4.637183845179047E+03 RG= 1.390192743144118E+09 RR=-4.756171904189218E-01
2461796.500000000 = A.D. 2028-Jan-26 00:00:00.0000 TDB 
 X = 1.231847201297141E+09 Y = 6.414435264723837E+08 Z =-6.020234997958237E+07
 VX=-4.984996394862018E+00 VY= 8.547839698119850E+00 VZ= 4.958767063808800E-02
 LT= 4.637046818725536E+03 RG= 1.390151663646809E+09 RR=-4.753313824575545E-01
2461797.500000000 = A.D. 2028-Jan-27 00:00:00.0000 TDB 
 X = 1.231416259771024E+09 Y = 6.421819568691119E+08 Z =-6.019806138571593E+07
 VX=-4.990501746111949E+00 VY= 8.545433147315165E+00 VZ= 4.969749273574386E-02
 LT= 4.636909841447022E+03 RG= 1.390110598891793E+09 RR=-4.752526216158744E-01
